NORAD_CAT_ID,OBJECT_NAME,OBJECT_TYPE,EPOCH,MEAN_MOTION,ECCENTRICITY,INCLINATION,RA_OF_ASC_NODE,ARG_OF_PERICENTER,MEAN_ANOMALY,BSTAR,MEAN_MOTION_DOT,MEAN_MOTION_DDOT,TLE_LINE0,TLE_LINE1,TLE_LINE2,SEMIMAJOR_AXIS,PERIOD,APOGEE,PERIGEE,DECAYED
51867.0,STARLINK-3590,PAYLOAD,2022-05-13 14:00:01,15.34476492,0.0001635,53.2172,158.0063,41.2444,67.4469,-0.022892,-0.00716114,0.0,0 STARLINK-3590,1 51867U 22022R   22133.58334491 -.00716114  00000-0 -22892-1 0  9999,2 51867  53.2172 158.0063 0001635  41.2444  67.4469 15.34476492  1301,6840.613,93.843,463.596,461.359,0.0
51867.0,STARLINK-3590,PAYLOAD,2022-05-13 22:00:00,15.33966526,0.000158,53.2173,156.4483,46.341,104.4409,-0.023291,-0.00716761,0.0,0 STARLINK-3590,1 51867U 22022R   22133.91667824 -.00716761  00000-0 -23291-1 0  9997,2 51867  53.2173 156.4483 0001580  46.3410 104.4409 15.33966526 12374,6842.129,93.874,465.075,462.913,0.0
51867.0,STARLINK-3590,PAYLOAD,2022-05-14 14:00:01,15.32948016,0.0001583,53.2171,153.341,50.9214,182.1992,-0.024129,-0.00718731,0.0,0 STARLINK-3590,1 51867U 22022R   22134.58334491 -.00718731  00000-0 -24129-1 0  9992,2 51867  53.2171 153.3410 0001583  50.9214 182.1992 15.32948016  1308,6845.159000000002,93.937,468.108,465.941,0.0
51867.0,STARLINK-3590,PAYLOAD,2022-05-14 22:00:00,15.32435678,0.0001693,53.2173,151.7865,42.2491,231.1246,-0.024381,-0.0071488999999999,0.0,0 STARLINK-3590,1 51867U 22022R   22134.91667824 -.00714890  00000-0 -24381-1 0  9990,2 51867  53.2173 151.7865 0001693  42.2491 231.1246 15.32435678 12527,6846.685,93.968,469.709,467.391,0.0
51867.0,STARLINK-3590,PAYLOAD,2022-05-15 14:00:01,15.31418447,0.000153,53.2172,148.6865,42.5931,309.5058,-0.025327,-0.00718872,0.0,0 STARLINK-3590,1 51867U 22022R   22135.58335648 -.00718872  00000-0 -25327-1 0  9995,2 51867  53.2172 148.6865 0001530  42.5931 309.5058 15.31418447  1302,6849.715999999999,94.03,472.629,470.533,0.0
51867.0,STARLINK-3590,PAYLOAD,2022-05-15 22:00:00,15.30905272,0.000157,53.2172,147.1357,39.1866,351.2637,-0.025566,-0.00714448,0.0,0 STARLINK-3590,1 51867U 22022R   22135.91667824 -.00714448  00000-0 -25566-1 0  9996,2 51867  53.2172 147.1357 0001570  39.1866 351.2637 15.30905272 12670,6851.246999999999,94.062,474.18800000000016,472.036,0.0
51867.0,STARLINK-3590,PAYLOAD,2022-05-16 14:00:01,15.2988676,0.0001647,53.2171,144.043,41.3061,64.1293,-0.026446,-0.00715835,0.0,0 STARLINK-3590,1 51867U 22022R   22136.58334491 -.00715835  00000-0 -26446-1 0  9990,2 51867  53.2171 144.0430 0001647  41.3061  64.1293 15.29886760  1308,6854.288000000001,94.125,477.281,475.024,0.0
51867.0,STARLINK-3590,PAYLOAD,2022-05-16 22:00:00,15.29377719,0.0001739,53.2172,142.4959,41.3035,100.707,-0.026973,-0.00718454,0.0,0 STARLINK-3590,1 51867U 22022R   22136.91667824 -.00718454  00000-0 -26973-1 0  9991,2 51867  53.2172 142.4959 0001739  41.3035 100.7070 15.29377719 12839,6855.808000000001,94.156,478.866,476.481,0.0
51867.0,STARLINK-3590,PAYLOAD,2022-05-17 14:00:01,15.28357876,0.000175,53.2171,139.4101,44.7544,168.6289,-0.027819,-0.00726381,0.0,0 STARLINK-3590,1 51867U 22022R   22137.58335648 -.00726381  00000-0 -27819-1 0  9999,2 51867  53.2171 139.4101 0001750  44.7544 168.6289 15.28357876  1304,6858.858,94.219,481.923,479.523,0.0
51867.0,STARLINK-3590,PAYLOAD,2022-05-17 22:00:01,15.27846952,0.000177,53.2172,137.8665,42.2533,205.8674,-0.028209,-0.00725182,0.0,0 STARLINK-3590,1 51867U 22022R   22137.91668981 -.00725182  00000-0 -28209-1 0  9997,2 51867  53.2172 137.8665 0001770  42.2533 205.8674 15.27846952  1304,6860.387,94.25,483.466,481.038,0.0
51867.0,STARLINK-3590,PAYLOAD,2022-05-18 06:00:00,15.27336091,0.0001813,53.2172,136.3278,40.2915,241.8877,-0.028577,-0.00723373,0.0,0 STARLINK-3590,1 51867U 22022R   22138.25001157 -.00723373  00000-0 -28577-1 0  9999,2 51867  53.2172 136.3278 0001813  40.2915 241.8877 15.27336091 13034,6861.917,94.282,485.026,482.537,0.0
51867.0,STARLINK-3590,PAYLOAD,2022-05-18 14:00:01,15.26829047,0.0001522,53.2172,134.78799999999998,47.9069,267.7818,-0.029237,-0.00728322,0.0,0 STARLINK-3590,1 51867U 22022R   22138.58334491 -.00728322  00000-0 -29237-1 0  9998,2 51867  53.2172 134.7880 0001522  47.9069 267.7818 15.26829047  1302,6863.436,94.313,486.345,484.256,0.0
51867.0,STARLINK-3590,PAYLOAD,2022-05-18 22:00:00,15.26315212,0.0001667,53.2172,133.2484,38.5121,310.0765,-0.029415,-0.00721861,0.0,0 STARLINK-3590,1 51867U 22022R   22138.91667824 -.00721861  00000-0 -29415-1 0  9993,2 51867  53.2172 133.2484 0001667  38.5121 310.0765 15.26315212  1308,6864.976,94.345,487.985,485.697,0.0
51867.0,STARLINK-3590,PAYLOAD,2022-05-19 14:00:01,15.25297605,0.0001619,53.2172,130.1769,39.8929,12.7142,-0.030495,-0.00725392,0.0,0 STARLINK-3590,1 51867U 22022R   22139.58335648 -.00725392  00000-0 -30495-1 0  9996,2 51867  53.2172 130.1769 0001619  39.8929  12.7142 15.25297605  1306,6868.029,94.408,491.006,488.782,0.0
51867.0,STARLINK-3590,PAYLOAD,2022-05-19 22:00:00,15.24786493,0.0001739,53.2173,128.6408,38.3371,45.2668,-0.030885,-0.00723577,0.0,0 STARLINK-3590,1 51867U 22022R   22139.91667824 -.00723577  00000-0 -30885-1 0  9993,2 51867  53.2173 128.6408 0001739  38.3371  45.2668 15.24786493 13299,6869.564,94.439,492.62300000000016,490.234,0.0
51867.0,STARLINK-3590,PAYLOAD,2022-05-20 14:00:01,15.23766756,0.0001704,53.2172,125.5765,44.2775,99.6056,-0.031845,-0.00723573,0.0,0 STARLINK-3590,1 51867U 22022R   22140.58334491 -.00723573  00000-0 -31845-1 0  9992,2 51867  53.2172 125.5765 0001704  44.2775  99.6056 15.23766756  1308,6872.628000000002,94.503,495.664,493.322,0.0
51867.0,STARLINK-3590,PAYLOAD,2022-05-20 22:00:00,15.23257651,0.0001874,53.2173,124.0442,40.7245,132.3795,-0.032394,-0.00724864,0.0,0 STARLINK-3590,1 51867U 22022R   22140.91667824 -.00724864  00000-0 -32394-1 0  9992,2 51867  53.2173 124.0442 0001874  40.7245 132.3795 15.23257651 13448,6874.159000000002,94.534,497.31300000000016,494.736,0.0
51867.0,STARLINK-3590,PAYLOAD,2022-05-21 06:00:00,15.22746369,0.0002138,53.2172,122.5162,34.936,166.7757,-0.032804,-0.00723103,0.0,0 STARLINK-3590,1 51867U 22022R   22141.25001157 -.00723103  00000-0 -32804-1 0  9992,2 51867  53.2172 122.5162 0002138  34.9360 166.7757 15.22746369  1305,6875.698,94.566,499.033,496.093,0.0
51867.0,STARLINK-3590,PAYLOAD,2022-05-21 14:00:01,15.22237834,0.0001798,53.2173,120.9867,42.9753,186.7949,-0.033423,-0.00725488,0.0,0 STARLINK-3590,1 51867U 22022R   22141.58335648 -.00725488  00000-0 -33423-1 0  9999,2 51867  53.2173 120.9867 0001798  42.9753 186.7949 15.22237834  1303,6877.229,94.598,500.331,497.858,0.0
51867.0,STARLINK-3590,PAYLOAD,2022-05-21 22:00:00,15.21726779,0.0001988,53.2173,119.4581,35.9368,221.1532,-0.033802,-0.00722902,0.0,0 STARLINK-3590,1 51867U 22022R   22141.91667824 -.00722902  00000-0 -33802-1 0  9999,2 51867  53.2173 119.4581 0001988  35.9368 221.1532 15.21726779  1306,6878.769,94.629,502.001,499.266,0.0
51867.0,STARLINK-3590,PAYLOAD,2022-05-22 06:00:00,15.21216164,0.0001982,53.2174,117.9338,32.7976,251.0614,-0.034299,-0.00722578,0.0,0 STARLINK-3590,1 51867U 22022R   22142.25001157 -.00722578  00000-0 -34299-1 0  9998,2 51867  53.2174 117.9338 0001982  32.7976 251.0614 15.21216164 13649,6880.308000000001,94.661,503.537,500.809,0.0
51867.0,STARLINK-3590,PAYLOAD,2022-05-22 14:00:01,15.20708536,0.0001568,53.2173,116.4078,47.887,262.1286,-0.035031,-0.00726703,0.0,0 STARLINK-3590,1 51867U 22022R   22142.58334491 -.00726703  00000-0 -35031-1 0  9993,2 51867  53.2173 116.4078 0001568  47.8870 262.1286 15.20708536  1309,6881.839,94.693,504.783,502.625,0.0
51867.0,STARLINK-3590,PAYLOAD,2022-05-22 22:00:01,15.20195629,0.000175,53.2175,114.883,39.1153,296.5092,-0.035246,-0.0072069,0.0,0 STARLINK-3590,1 51867U 22022R   22142.91668981 -.00720690  00000-0 -35246-1 0  9991,2 51867  53.2175 114.8830 0001750  39.1153 296.5092 15.20195629  1309,6883.387,94.725,506.457,504.047,0.0
51867.0,STARLINK-3590,PAYLOAD,2022-05-23 04:00:00,15.19813454,0.0001783,53.2173,113.7425,43.4056,220.9105,-0.035708,-0.00721928,0.0,0 STARLINK-3590,1 51867U 22022R   22143.16667824 -.00721928  00000-0 -35708-1 0  9992,2 51867  53.2173 113.7425 0001783  43.4056 220.9105 15.19813454 13783,6884.541,94.748,507.633,505.17800000000005,0.0
51867.0,STARLINK-3590,PAYLOAD,2022-05-23 14:00:01,15.19177964,0.0001603,53.2174,111.8397,41.2074,343.6024,-0.036569,-0.0072546999999999,0.0,0 STARLINK-3590,1 51867U 22022R   22143.58334491 -.00725470  00000-0 -36569-1 0  9991,2 51867  53.2174 111.8397 0001603  41.2074 343.6024 15.19177964  1305,6886.4609999999975,94.788,509.43,507.222,0.0
51867.0,STARLINK-3590,PAYLOAD,2022-05-23 22:00:01,15.18665756,0.0001712,53.2174,110.3186,39.7496,8.8301,-0.03686,-0.00720775,0.0,0 STARLINK-3590,1 51867U 22022R   22143.91668981 -.00720775  00000-0 -36860-1 0  9999,2 51867  53.2174 110.3186 0001712  39.7496   8.8301 15.18665756  1304,6888.009,94.82,511.05300000000005,508.695,0.0
51867.0,STARLINK-3590,PAYLOAD,2022-05-24 06:00:02,15.18158603,0.0001958,53.2174,108.8013,34.2482,37.4225,-0.037721,-0.00726458,0.0,0 STARLINK-3590,1 51867U 22022R   22144.25002315 -.00726458  00000-0 -37721-1 0  9991,2 51867  53.2174 108.8013 0001958  34.2482  37.4225 15.18158603 13957,6889.543000000002,94.852,512.757,510.059,0.0
51867.0,STARLINK-3590,PAYLOAD,2022-05-24 12:00:53,15.19181585,0.0002095,53.2168,107.6715,33.9558,326.1572,-0.010481,-0.00217005,0.0,0 STARLINK-3590,1 51867U 22022R   22144.50062168 -.00217005  00000-0 -10481-1 0  9998,2 51867  53.2168 107.6715 0002095  33.9558 326.1572 15.19181585 13992,6886.45,94.788,509.757,506.872,0.0
51867.0,STARLINK-3590,PAYLOAD,2022-05-24 13:35:40,15.1912075,0.0002118,53.2169,107.3721,25.2949,334.8151,-0.010179,-0.00210574,0.0,0 STARLINK-3590,1 51867U 22022R   22144.56643591 -.00210574  00000-0 -10179-1 0  9997,2 51867  53.2169 107.3721 0002118  25.2949 334.8151 15.19120750 14000,6886.634,94.792,509.957,507.04,0.0
